{
  "norad_id": 64930,
  "name": "STARLINK-34220",
  "history": [
    {
      "epoch": "2026-04-13T05:20:20.079168Z",
      "apogee_km": 475.9693109435957,
      "perigee_km": 474.463903290256,
      "latitude_deg": -1.7370249927483465e-05,
      "longitude_deg": -96.44270656081675,
      "height_km": 476.0602881771111,
      "semi_major_axis_km": 6853.353607116926,
      "eccentricity": 0.00010983,
      "inclination_deg": 53.1588,
      "raan_deg": 185.0573,
      "arg_perigee_deg": 85.8474,
      "mean_anomaly_deg": 274.2652,
      "mean_motion_rev_day": 15.30199485
    },
    {
      "epoch": "2026-04-14T11:07:20.570592Z",
      "apogee_km": 476.0392548312502,
      "perigee_km": 474.3727959411972,
      "latitude_deg": 4.648871486128277e-05,
      "longitude_deg": 169.81633093017302,
      "height_km": 476.1850832920617,
      "semi_major_axis_km": 6853.343025386223,
      "eccentricity": 0.00012158,
      "inclination_deg": 53.1612,
      "raan_deg": 179.2915,
      "arg_perigee_deg": 95.5634,
      "mean_anomaly_deg": 264.5506,
      "mean_motion_rev_day": 15.30203029
    },
    {
      "epoch": "2026-04-15T12:12:13.180032Z",
      "apogee_km": 476.02266082950246,
      "perigee_km": 474.5491749021621,
      "latitude_deg": -8.648261265645604e-06,
      "longitude_deg": 147.71483409465142,
      "height_km": 476.0298901887275,
      "semi_major_axis_km": 6853.4229178658325,
      "eccentricity": 0.0001075,
      "inclination_deg": 53.1586,
      "raan_deg": 174.4393,
      "arg_perigee_deg": 77.9152,
      "mean_anomaly_deg": 282.1969,
      "mean_motion_rev_day": 15.30176272
    },
    {
      "epoch": "2026-04-16T11:43:01.596288Z",
      "apogee_km": 475.92573825161435,
      "perigee_km": 474.4961298725684,
      "latitude_deg": -3.804463879513166e-05,
      "longitude_deg": 149.49731666453974,
      "height_km": 475.82747897441135,
      "semi_major_axis_km": 6853.347934062091,
      "eccentricity": 0.0001043,
      "inclination_deg": 53.1594,
      "raan_deg": 169.8892,
      "arg_perigee_deg": 66.7733,
      "mean_anomaly_deg": 293.3377,
      "mean_motion_rev_day": 15.30201385
    },
    {
      "epoch": "2026-04-17T20:38:05.399808Z",
      "apogee_km": 475.6631086743191,
      "perigee_km": 473.91862735623727,
      "latitude_deg": 1.220661616852739e-05,
      "longitude_deg": 8.007925213258329,
      "height_km": 475.0502037133408,
      "semi_major_axis_km": 6852.927868015277,
      "eccentricity": 0.00012728,
      "inclination_deg": 53.1573,
      "raan_deg": 163.5175,
      "arg_perigee_deg": 42.89,
      "mean_anomaly_deg": 317.22,
      "mean_motion_rev_day": 15.30342083
    },
    {
      "epoch": "2026-04-18T20:08:52.610784Z",
      "apogee_km": 475.5855199426478,
      "perigee_km": 474.78779306903016,
      "latitude_deg": -1.530997107052981e-06,
      "longitude_deg": 9.791753446783776,
      "height_km": 475.9498178853906,
      "semi_major_axis_km": 6853.323656505839,
      "eccentricity": 5.82e-05,
      "inclination_deg": 53.1575,
      "raan_deg": 158.9637,
      "arg_perigee_deg": 290.0759,
      "mean_anomaly_deg": 70.0179,
      "mean_motion_rev_day": 15.30209516
    },
    {
      "epoch": "2026-04-19T19:39:42.124320Z",
      "apogee_km": 475.7114382755053,
      "perigee_km": 474.78760177260574,
      "latitude_deg": -4.64170724360213e-05,
      "longitude_deg": 11.569837013144658,
      "height_km": 475.8430586708222,
      "semi_major_axis_km": 6853.386520024055,
      "eccentricity": 6.74e-05,
      "inclination_deg": 53.1544,
      "raan_deg": 154.4138,
      "arg_perigee_deg": 48.6864,
      "mean_anomaly_deg": 311.4194,
      "mean_motion_rev_day": 15.30188462
    },
    {
      "epoch": "2026-04-20T09:46:11.457984Z",
      "apogee_km": 475.96368513344623,
      "perigee_km": 474.52200814890693,
      "latitude_deg": -4.185081460671273e-05,
      "longitude_deg": 156.6409146317677,
      "height_km": 476.2191646650179,
      "semi_major_axis_km": 6853.379846641176,
      "eccentricity": 0.00010518,
      "inclination_deg": 53.1575,
      "raan_deg": 151.6865,
      "arg_perigee_deg": 96.2285,
      "mean_anomaly_deg": 263.8835,
      "mean_motion_rev_day": 15.30190697
    },
    {
      "epoch": "2026-04-21T09:16:59.431008Z",
      "apogee_km": 475.82194897247973,
      "perigee_km": 474.5665557536722,
      "latitude_deg": 2.3642952859101136e-05,
      "longitude_deg": 158.4235155289881,
      "height_km": 475.973539676343,
      "semi_major_axis_km": 6853.331252363076,
      "eccentricity": 9.159e-05,
      "inclination_deg": 53.1571,
      "raan_deg": 147.1346,
      "arg_perigee_deg": 79.0738,
      "mean_anomaly_deg": 281.0366,
      "mean_motion_rev_day": 15.30206972
    },
    {
      "epoch": "2026-04-22T08:47:47.436864Z",
      "apogee_km": 475.99679713397836,
      "perigee_km": 474.5065962957651,
      "latitude_deg": -1.00942519613324e-05,
      "longitude_deg": 160.20680514111783,
      "height_km": 475.87075281768284,
      "semi_major_axis_km": 6853.388696714871,
      "eccentricity": 0.00010872,
      "inclination_deg": 53.1579,
      "raan_deg": 142.5836,
      "arg_perigee_deg": 67.9975,
      "mean_anomaly_deg": 292.1141,
      "mean_motion_rev_day": 15.30187733
    }
  ]
}